STARLINK-36796          
1 67722U 26026B   26064.25003472 -.01999825  00000+0 -24002-1 0  9994
2 67722  97.2836 118.6736 0001807  79.7453 133.4675 15.64141552  4607
STARLINK-36369          
1 67723U 26026C   26064.25003472 -.01993269  00000+0 -23534-1 0  9990
2 67723  97.2837 118.6785 0001746  74.5805 150.1354 15.64543280  4603
STARLINK-36752          
1 67724U 26026D   26064.25003472 -.01992563  00000+0 -22343-1 0  9994
2 67724  97.2837 118.6886 0001664  74.8053 174.8714 15.65831201  4600
STARLINK-36754          
1 67725U 26026E   26064.25003472 -.01989395  00000+0 -24721-1 0  9996
2 67725  97.2836 118.6758 0001773  77.8678 141.7957 15.63245754  4607
STARLINK-36755          
1 67726U 26026F   26064.25003472 -.01987656  00000+0 -27170-1 0  9996
2 67726  97.2833 118.6624 0001885  77.4468 110.4657 15.60797566  4604
STARLINK-36741          
1 67727U 26026G   26064.25003472 -.01985048  00000+0 -25973-1 0  9999
2 67727  97.2833 118.6725 0001782  80.9894 130.6120 15.61922023  4603
STARLINK-36757          
1 67728U 26026H   26064.25003472 -.01994578  00000+0 -21869-1 0  9998
2 67728  97.2838 118.7027 0001477  74.2902 207.9679 15.66392537  4605
STARLINK-36751          
1 67729U 26026J   26064.25003472 -.01999250  00000+0 -21427-1 0  9991
2 67729  97.2841 118.7118 0001421  71.6551 231.5689 15.66962322  4600
STARLINK-36747          
1 67730U 26026K   26064.25003472 -.01999993  00000+0 -21523-1 0  9994
2 67730  97.2843 118.7075 0001452  72.4877 220.9918 15.66862827  4606
STARLINK-36315          
1 67731U 26026L   26064.25003472 -.01997602  00000+0 -21255-1 0  9992
2 67731  97.2840 118.7149 0001338  80.5608 230.2323 15.67138227  4606
STARLINK-36260          
1 67732U 26026M   26064.25003472 -.01999518  00000+0 -20949-1 0  9990
2 67732  97.2840 118.7197 0001406  64.4052 257.5123 15.67519508  4605
STARLINK-36746          
1 67733U 26026N   26064.25003472  .00015553  00000+0  28714-3 0  9996
2 67733  97.2844 118.5515 0001567  54.5333 230.4365 15.49181373  4605
STARLINK-36749          
1 67734U 26026P   26064.25003472 -.01984734  00000+0 -26665-1 0  9997
2 67734  97.2836 118.6870 0001655  82.9115 162.4336 15.61241897  4607
STARLINK-36691          
1 67735U 26026Q   26064.25003472 -.02003849  00000+0 -20297-1 0  9993
2 67735  97.2838 118.7363 0001384  59.9645 302.2944 15.68351291  4739
STARLINK-36317          
1 67736U 26026R   26064.25003472 -.02002456  00000+0 -20499-1 0  9991
2 67736  97.2840 118.7311 0001400  56.3283 293.7172 15.68091069  4601
STARLINK-36330          
1 67737U 26026S   26064.25003472 -.01998799  00000+0 -20158-1 0  9997
2 67737  97.2839 118.7393 0001352  58.5958 310.9451 15.68448836  4609
