[{"OBJECT_NAME":"STARLINK-36796","OBJECT_ID":"2026-026B","EPOCH":"2026-03-05T06:00:02.999808","MEAN_MOTION":15.64141552,"ECCENTRICITY":0.00018077,"INCLINATION":97.2836,"RA_OF_ASC_NODE":118.6736,"ARG_OF_PERICENTER":79.7453,"MEAN_ANOMALY":133.4675,"EPHEMERIS_TYPE":0,"CLASSIFICATION_TYPE":"U","NORAD_CAT_ID":67722,"ELEMENT_SET_NO":999,"REV_AT_EPOCH":460,"BSTAR":-0.024002077,"MEAN_MOTION_DOT":-0.01999825,"MEAN_MOTION_DDOT":0},{"OBJECT_NAME":"STARLINK-36369","OBJECT_ID":"2026-026C","EPOCH":"2026-03-05T06:00:02.999808","MEAN_MOTION":15.6454328,"ECCENTRICITY":0.00017462,"INCLINATION":97.2837,"RA_OF_ASC_NODE":118.6785,"ARG_OF_PERICENTER":74.5805,"MEAN_ANOMALY":150.1354,"EPHEMERIS_TYPE":0,"CLASSIFICATION_TYPE":"U","NORAD_CAT_ID":67723,"ELEMENT_SET_NO":999,"REV_AT_EPOCH":460,"BSTAR":-0.02353431,"MEAN_MOTION_DOT":-0.01993269,"MEAN_MOTION_DDOT":0},{"OBJECT_NAME":"STARLINK-36752","OBJECT_ID":"2026-026D","EPOCH":"2026-03-05T06:00:02.999808","MEAN_MOTION":15.65831201,"ECCENTRICITY":0.00016648,"INCLINATION":97.2837,"RA_OF_ASC_NODE":118.6886,"ARG_OF_PERICENTER":74.8053,"MEAN_ANOMALY":174.8714,"EPHEMERIS_TYPE":0,"CLASSIFICATION_TYPE":"U","NORAD_CAT_ID":67724,"ELEMENT_SET_NO":999,"REV_AT_EPOCH":460,"BSTAR":-0.022342901,"MEAN_MOTION_DOT":-0.01992563,"MEAN_MOTION_DDOT":0},{"OBJECT_NAME":"STARLINK-36754","OBJECT_ID":"2026-026E","EPOCH":"2026-03-05T06:00:02.999808","MEAN_MOTION":15.63245754,"ECCENTRICITY":0.00017733,"INCLINATION":97.2836,"RA_OF_ASC_NODE":118.6758,"ARG_OF_PERICENTER":77.8678,"MEAN_ANOMALY":141.7957,"EPHEMERIS_TYPE":0,"CLASSIFICATION_TYPE":"U","NORAD_CAT_ID":67725,"ELEMENT_SET_NO":999,"REV_AT_EPOCH":460,"BSTAR":-0.024720886,"MEAN_MOTION_DOT":-0.01989395,"MEAN_MOTION_DDOT":0},{"OBJECT_NAME":"STARLINK-36755","OBJECT_ID":"2026-026F","EPOCH":"2026-03-05T06:00:02.999808","MEAN_MOTION":15.60797566,"ECCENTRICITY":0.00018852,"INCLINATION":97.2833,"RA_OF_ASC_NODE":118.6624,"ARG_OF_PERICENTER":77.4468,"MEAN_ANOMALY":110.4657,"EPHEMERIS_TYPE":0,"CLASSIFICATION_TYPE":"U","NORAD_CAT_ID":67726,"ELEMENT_SET_NO":999,"REV_AT_EPOCH":460,"BSTAR":-0.027170389,"MEAN_MOTION_DOT":-0.01987656,"MEAN_MOTION_DDOT":0},{"OBJECT_NAME":"STARLINK-36741","OBJECT_ID":"2026-026G","EPOCH":"2026-03-05T06:00:02.999808","MEAN_MOTION":15.61922023,"ECCENTRICITY":0.00017824,"INCLINATION":97.2833,"RA_OF_ASC_NODE":118.6725,"ARG_OF_PERICENTER":80.9894,"MEAN_ANOMALY":130.612,"EPHEMERIS_TYPE":0,"CLASSIFICATION_TYPE":"U","NORAD_CAT_ID":67727,"ELEMENT_SET_NO":999,"REV_AT_EPOCH":460,"BSTAR":-0.025972618,"MEAN_MOTION_DOT":-0.01985048,"MEAN_MOTION_DDOT":0},{"OBJECT_NAME":"STARLINK-36757","OBJECT_ID":"2026-026H","EPOCH":"2026-03-05T06:00:02.999808","MEAN_MOTION":15.66392537,"ECCENTRICITY":0.00014775,"INCLINATION":97.2838,"RA_OF_ASC_NODE":118.7027,"ARG_OF_PERICENTER":74.2902,"MEAN_ANOMALY":207.9679,"EPHEMERIS_TYPE":0,"CLASSIFICATION_TYPE":"U","NORAD_CAT_ID":67728,"ELEMENT_SET_NO":999,"REV_AT_EPOCH":460,"BSTAR":-0.021869249,"MEAN_MOTION_DOT":-0.01994578,"MEAN_MOTION_DDOT":0},{"OBJECT_NAME":"STARLINK-36751","OBJECT_ID":"2026-026J","EPOCH":"2026-03-05T06:00:02.999808","MEAN_MOTION":15.66962322,"ECCENTRICITY":0.00014213,"INCLINATION":97.2841,"RA_OF_ASC_NODE":118.7118,"ARG_OF_PERICENTER":71.6551,"MEAN_ANOMALY":231.5689,"EPHEMERIS_TYPE":0,"CLASSIFICATION_TYPE":"U","NORAD_CAT_ID":67729,"ELEMENT_SET_NO":999,"REV_AT_EPOCH":460,"BSTAR":-0.021426983,"MEAN_MOTION_DOT":-0.0199925,"MEAN_MOTION_DDOT":0},{"OBJECT_NAME":"STARLINK-36747","OBJECT_ID":"2026-026K","EPOCH":"2026-03-05T06:00:02.999808","MEAN_MOTION":15.66862827,"ECCENTRICITY":0.00014529,"INCLINATION":97.2843,"RA_OF_ASC_NODE":118.7075,"ARG_OF_PERICENTER":72.4877,"MEAN_ANOMALY":220.9918,"EPHEMERIS_TYPE":0,"CLASSIFICATION_TYPE":"U","NORAD_CAT_ID":67730,"ELEMENT_SET_NO":999,"REV_AT_EPOCH":460,"BSTAR":-0.02152258,"MEAN_MOTION_DOT":-0.01999993,"MEAN_MOTION_DDOT":0},{"OBJECT_NAME":"STARLINK-36315","OBJECT_ID":"2026-026L","EPOCH":"2026-03-05T06:00:02.999808","MEAN_MOTION":15.67138227,"ECCENTRICITY":0.0001338,"INCLINATION":97.284,"RA_OF_ASC_NODE":118.7149,"ARG_OF_PERICENTER":80.5608,"MEAN_ANOMALY":230.2323,"EPHEMERIS_TYPE":0,"CLASSIFICATION_TYPE":"U","NORAD_CAT_ID":67731,"ELEMENT_SET_NO":999,"REV_AT_EPOCH":460,"BSTAR":-0.021255042,"MEAN_MOTION_DOT":-0.01997602,"MEAN_MOTION_DDOT":0},{"OBJECT_NAME":"STARLINK-36260","OBJECT_ID":"2026-026M","EPOCH":"2026-03-05T06:00:02.999808","MEAN_MOTION":15.67519508,"ECCENTRICITY":0.0001406,"INCLINATION":97.284,"RA_OF_ASC_NODE":118.7197,"ARG_OF_PERICENTER":64.4052,"MEAN_ANOMALY":257.5123,"EPHEMERIS_TYPE":0,"CLASSIFICATION_TYPE":"U","NORAD_CAT_ID":67732,"ELEMENT_SET_NO":999,"REV_AT_EPOCH":460,"BSTAR":-0.020949196,"MEAN_MOTION_DOT":-0.01999518,"MEAN_MOTION_DDOT":0},{"OBJECT_NAME":"STARLINK-36746","OBJECT_ID":"2026-026N","EPOCH":"2026-03-05T06:00:02.999808","MEAN_MOTION":15.49181373,"ECCENTRICITY":0.00015674,"INCLINATION":97.2844,"RA_OF_ASC_NODE":118.5515,"ARG_OF_PERICENTER":54.5333,"MEAN_ANOMALY":230.4365,"EPHEMERIS_TYPE":0,"CLASSIFICATION_TYPE":"U","NORAD_CAT_ID":67733,"ELEMENT_SET_NO":999,"REV_AT_EPOCH":460,"BSTAR":0.00028713818,"MEAN_MOTION_DOT":0.00015553,"MEAN_MOTION_DDOT":0},{"OBJECT_NAME":"STARLINK-36749","OBJECT_ID":"2026-026P","EPOCH":"2026-03-05T06:00:02.999808","MEAN_MOTION":15.61241897,"ECCENTRICITY":0.00016554,"INCLINATION":97.2836,"RA_OF_ASC_NODE":118.687,"ARG_OF_PERICENTER":82.9115,"MEAN_ANOMALY":162.4336,"EPHEMERIS_TYPE":0,"CLASSIFICATION_TYPE":"U","NORAD_CAT_ID":67734,"ELEMENT_SET_NO":999,"REV_AT_EPOCH":460,"BSTAR":-0.026665204,"MEAN_MOTION_DOT":-0.01984734,"MEAN_MOTION_DDOT":0},{"OBJECT_NAME":"STARLINK-36691","OBJECT_ID":"2026-026Q","EPOCH":"2026-03-05T06:00:02.999808","MEAN_MOTION":15.68351291,"ECCENTRICITY":0.00013846,"INCLINATION":97.2838,"RA_OF_ASC_NODE":118.7363,"ARG_OF_PERICENTER":59.9645,"MEAN_ANOMALY":302.2944,"EPHEMERIS_TYPE":0,"CLASSIFICATION_TYPE":"U","NORAD_CAT_ID":67735,"ELEMENT_SET_NO":999,"REV_AT_EPOCH":473,"BSTAR":-0.020296728,"MEAN_MOTION_DOT":-0.02003849,"MEAN_MOTION_DDOT":0},{"OBJECT_NAME":"STARLINK-36317","OBJECT_ID":"2026-026R","EPOCH":"2026-03-05T06:00:02.999808","MEAN_MOTION":15.68091069,"ECCENTRICITY":0.00014009,"INCLINATION":97.284,"RA_OF_ASC_NODE":118.7311,"ARG_OF_PERICENTER":56.3283,"MEAN_ANOMALY":293.7172,"EPHEMERIS_TYPE":0,"CLASSIFICATION_TYPE":"U","NORAD_CAT_ID":67736,"ELEMENT_SET_NO":999,"REV_AT_EPOCH":460,"BSTAR":-0.020498659,"MEAN_MOTION_DOT":-0.02002456,"MEAN_MOTION_DDOT":0},{"OBJECT_NAME":"STARLINK-36330","OBJECT_ID":"2026-026S","EPOCH":"2026-03-05T06:00:02.999808","MEAN_MOTION":15.68448836,"ECCENTRICITY":0.00013524,"INCLINATION":97.2839,"RA_OF_ASC_NODE":118.7393,"ARG_OF_PERICENTER":58.5958,"MEAN_ANOMALY":310.9451,"EPHEMERIS_TYPE":0,"CLASSIFICATION_TYPE":"U","NORAD_CAT_ID":67737,"ELEMENT_SET_NO":999,"REV_AT_EPOCH":460,"BSTAR":-0.020157874,"MEAN_MOTION_DOT":-0.01998799,"MEAN_MOTION_DDOT":0}]
